HYPERFIELD-1A           
1 60562U 24149CY  26068.76488211  .00008569  00000+0  30052-3 0  9998
2 60562  97.3842 149.5066 0003865 313.7844  46.3076 15.29681349 86836
STARLINK-32433          
1 61852U 24202H   26068.50936657  .00000042  00000+0  11060-4 0  9992
2 61852  43.0024 238.6988 0001786 285.7681  74.2974 15.27567455 75316
